CCSDS_OMM_VERS,COMMENT,CREATION_DATE,ORIGINATOR,OBJECT_NAME,OBJECT_ID,CENTER_NAME,REF_FRAME,TIME_SYSTEM,MEAN_ELEMENT_THEORY,EPOCH,MEAN_MOTION,ECCENTRICITY,INCLINATION,RA_OF_ASC_NODE,ARG_OF_PERICENTER,MEAN_ANOMALY,EPHEMERIS_TYPE,CLASSIFICATION_TYPE,NORAD_CAT_ID,ELEMENT_SET_NO,REV_AT_EPOCH,BSTAR,MEAN_MOTION_DOT,MEAN_MOTION_DDOT,SEMIMAJOR_AXIS,PERIOD,APOAPSIS,PERIAPSIS,OBJECT_TYPE,RCS_SIZE,COUNTRY_CODE,LAUNCH_DATE,SITE,DECAY_DATE,FILE,GP_ID,TLE_LINE0,TLE_LINE1,TLE_LINE2
"2.0","GENERATED VIA SPACE-TRACK.ORG API","2012-12-27T15:40:30","18 SPCS","BLITS","2009-049G","EARTH","TEME","UTC","SGP4","2012-12-27T18:18:40.251168","14.21596782","0.00031250","98.6205","52.1032","195.7888","164.3191","0","U","35871","999","16946","0.00000594700000","-0.00000030","0.0000000000000","7198.099","101.294","822.213","817.714","PAYLOAD","SMALL","CIS","2009-09-17","TTMTR","","1411794","91768241","0 BLITS","1 35871U 09049G   12362.76296587 -.00000030  00000-0  59470-5 0  9994","2 35871 098.6205 052.1032 0003125 195.7888 164.3191 14.21596782169462"
"2.0","GENERATED VIA SPACE-TRACK.ORG API","2012-12-27T23:24:00","18 SPCS","BLITS","2009-049G","EARTH","TEME","UTC","SGP4","2012-12-28T02:45:25.826399","14.21596834","0.00031230","98.6205","52.4472","195.4551","164.6544","0","U","35871","999","16951","0.00000554900000","-0.00000031","0.0000000000000","7198.099","101.294","822.212","817.716","PAYLOAD","SMALL","CIS","2009-09-17","TTMTR","","1412063","91770286","0 BLITS","1 35871U 09049G   12363.11488225 -.00000031  00000-0  55490-5 0  9995","2 35871 098.6205 052.4472 0003123 195.4551 164.6544 14.21596834169514"
"2.0","GENERATED VIA SPACE-TRACK.ORG API","2012-12-28T07:48:10","18 SPCS","BLITS","2009-049G","EARTH","TEME","UTC","SGP4","2012-12-28T07:49:29.151839","14.21596911","0.00031530","98.6202","52.6533","194.3942","165.7152","0","U","35871","999","16954","0.00000813540000","-0.00000025","0.0000000000000","7198.098","101.294","822.233","817.694","PAYLOAD","SMALL","CIS","2009-09-17","TTMTR","","1412278","91774068","0 BLITS","1 35871U 09049G   12363.32603185 -.00000025  00000-0  81354-5 0  9993","2 35871 098.6202 052.6533 0003153 194.3942 165.7152 14.21596911169542"
"2.0","GENERATED VIA SPACE-TRACK.ORG API","2012-12-28T16:04:07","18 SPCS","BLITS","2009-049G","EARTH","TEME","UTC","SGP4","2012-12-28T19:38:56.934528","14.21596806","0.00032140","98.6203","53.1346","191.7488","168.3597","0","U","35871","999","16961","0.00000435910000","-0.00000033","0.0000000000000","7198.099","101.294","822.277","817.650","PAYLOAD","SMALL","CIS","2009-09-17","TTMTR","","1412575","91776917","0 BLITS","1 35871U 09049G   12363.81871452 -.00000033  00000-0  43591-5 0  9991","2 35871 098.6203 053.1346 0003214 191.7488 168.3597 14.21596806169618"
"2.0","GENERATED VIA SPACE-TRACK.ORG API","2012-12-28T23:56:04","18 SPCS","BLITS","2009-049G","EARTH","TEME","UTC","SGP4","2012-12-29T02:24:21.410783","14.21597003","0.00032170","98.6202","53.4098","191.1561","168.9555","0","U","35871","999","16965","0.00001099900000","-0.00000019","0.0000000000000","7198.098","101.294","822.279","817.647","PAYLOAD","SMALL","CIS","2009-09-17","TTMTR","","1412796","91779629","0 BLITS","1 35871U 09049G   12364.10024781 -.00000019  00000-0  10999-4 0  9998","2 35871 098.6202 053.4098 0003217 191.1561 168.9555 14.21597003169657"
"2.0","GENERATED VIA SPACE-TRACK.ORG API","2012-12-29T15:20:50","18 SPCS","BLITS","2009-049G","EARTH","TEME","UTC","SGP4","2012-12-29T15:55:10.314047","14.21596974","0.00032330","98.6200","53.9596","189.8714","170.2398","0","U","35871","999","16973","0.00000926430000","-0.00000023","0.0000000000000","7198.098","101.294","822.290","817.636","PAYLOAD","SMALL","CIS","2009-09-17","TTMTR","","1413053","91784524","0 BLITS","1 35871U 09049G   12364.66331382 -.00000023  00000-0  92643-5 0  9999","2 35871 098.6200 053.9596 0003233 189.8714 170.2398 14.21596974169731"
"2.0","GENERATED VIA SPACE-TRACK.ORG API","2012-12-29T23:42:24","18 SPCS","BLITS","2009-049G","EARTH","TEME","UTC","SGP4","2012-12-30T03:44:38.117472","14.21597007","0.00032700","98.6198","54.4409","188.2189","171.8938","0","U","35871","999","16980","0.00000901150000","-0.00000023","0.0000000000000","7198.098","101.294","822.317","817.609","PAYLOAD","SMALL","CIS","2009-09-17","TTMTR","","1413204","91787747","0 BLITS","1 35871U 09049G   12365.15599673 -.00000023  00000-0  90115-5 0  9995","2 35871 098.6198 054.4409 0003270 188.2189 171.8938 14.21597007169809"
"2.0","GENERATED VIA SPACE-TRACK.ORG API","2012-12-30T16:04:44","18 SPCS","BLITS","2009-049G","EARTH","TEME","UTC","SGP4","2012-12-30T17:15:27.022463","14.21597029","0.00033310","98.6200","54.9909","186.6483","173.4653","0","U","35871","999","16988","0.00000876350000","-0.00000024","0.0000000000000","7198.098","101.294","822.361","817.565","PAYLOAD","SMALL","CIS","2009-09-17","TTMTR","","1413494","91793489","0 BLITS","1 35871U 09049G   12365.71906276 -.00000024  00000-0  87635-5 0  9992","2 35871 098.6200 054.9909 0003331 186.6483 173.4653 14.21597029169884"
"2.0","GENERATED VIA SPACE-TRACK.ORG API","2012-12-31T00:00:03","18 SPCS","BLITS","2009-049G","EARTH","TEME","UTC","SGP4","2012-12-31T03:23:33.687167","14.21597165","0.00032920","98.6208","55.4040","185.5373","174.5765","0","U","35871","999","16994","0.00001491200000","-0.00000010","0.0000000000000","7198.097","101.294","822.332","817.593","PAYLOAD","SMALL","CIS","2009-09-17","TTMTR","","1413638","91796236","0 BLITS","1 35871U 09049G   12366.14136212 -.00000010  00000-0  14912-4 0  9997","2 35871 098.6208 055.4040 0003292 185.5373 174.5765 14.21597165169940"
"2.0","GENERATED VIA SPACE-TRACK.ORG API","2012-12-31T07:41:46","18 SPCS","BLITS","2009-049G","EARTH","TEME","UTC","SGP4","2012-12-31T10:08:58.155648","14.21597211","0.00032990","98.6209","55.6791","184.5623","175.5533","0","U","35871","999","16998","0.00001589900000","-0.00000008","0.0000000000000","7198.097","101.294","822.337","817.588","PAYLOAD","SMALL","CIS","2009-09-17","TTMTR","","1413750","91798804","0 BLITS","1 35871U 09049G   12366.42289532 -.00000008  00000-0  15899-4 0  9994","2 35871 098.6209 055.6791 0003299 184.5623 175.5533 14.21597211169980"
"2.0","GENERATED VIA SPACE-TRACK.ORG API","2012-12-31T15:57:55","18 SPCS","BLITS","2009-049G","EARTH","TEME","UTC","SGP4","2012-12-31T20:17:04.835039","14.21596918","0.00033690","98.6200","56.0911","182.7613","177.3521","0","U","35871","999","17004","0.00000407630000","-0.00000034","0.0000000000000","7198.098","101.294","822.388","817.538","PAYLOAD","SMALL","CIS","2009-09-17","TTMTR","","1414249","91801860","0 BLITS","1 35871U 09049G   12366.84519485 -.00000034  00000-0  40763-5 0  9991","2 35871 098.6200 056.0911 0003369 182.7613 177.3521 14.21596918170046"
"2.0","GENERATED VIA SPACE-TRACK.ORG API","2012-12-31T23:42:40","18 SPCS","BLITS","2009-049G","EARTH","TEME","UTC","SGP4","2013-01-01T03:02:29.329440","14.21596969","0.00033720","98.6198","56.3662","181.9672","178.1496","0","U","35871","999","17008","0.00000426030000","-0.00000034","0.0000000000000","7198.098","101.294","822.390","817.536","PAYLOAD","SMALL","CIS","2009-09-17","TTMTR","","1414367","91804561","0 BLITS","1 35871U 09049G   13001.12672835 -.00000034  00000-0  42603-5 0  9993","2 35871 098.6198 056.3662 0003372 181.9672 178.1496 14.21596969170088"
"2.0","GENERATED VIA SPACE-TRACK.ORG API","2013-01-01T07:41:00","18 SPCS","BLITS","2009-049G","EARTH","TEME","UTC","SGP4","2013-01-01T09:47:53.778048","14.21597116","0.00033690","98.6196","56.6409","180.8585","179.2596","0","U","35871","999","17012","0.00000900150000","-0.00000023","0.0000000000000","7198.098","101.294","822.388","817.538","PAYLOAD","SMALL","CIS","2009-09-17","TTMTR","","1414483","91807209","0 BLITS","1 35871U 09049G   13001.40826132 -.00000023  00000-0  90015-5 0  9993","2 35871 098.6196 056.6409 0003369 180.8585 179.2596 14.21597116170128"
"2.0","GENERATED VIA SPACE-TRACK.ORG API","2013-01-01T15:42:43","18 SPCS","BLITS","2009-049G","EARTH","TEME","UTC","SGP4","2013-01-01T19:56:00.428927","14.21597191","0.00034110","98.6198","57.0533","178.9611","181.1566","0","U","35871","999","17018","0.00001198800000","-0.00000017","0.0000000000000","7198.097","101.294","822.418","817.507","PAYLOAD","SMALL","CIS","2009-09-17","TTMTR","","1414630","91810089","0 BLITS","1 35871U 09049G   13001.83056052 -.00000017  00000-0  11988-4 0  9990","2 35871 098.6198 057.0533 0003411 178.9611 181.1566 14.21597191170187"
"2.0","GENERATED VIA SPACE-TRACK.ORG API","2013-01-01T23:55:01","18 SPCS","BLITS","2009-049G","EARTH","TEME","UTC","SGP4","2013-01-02T02:41:24.893088","14.21597327","0.00033900","98.6197","57.3285","178.4393","181.6808","0","U","35871","999","17022","0.00001516500000","-0.00000010","0.0000000000000","7198.097","101.294","822.402","817.522","PAYLOAD","SMALL","CIS","2009-09-17","TTMTR","","1414744","91812739","0 BLITS","1 35871U 09049G   13002.11209367 -.00000010  00000-0  15165-4 0  9995","2 35871 098.6197 057.3285 0003390 178.4393 181.6808 14.21597327170221"
"2.0","GENERATED VIA SPACE-TRACK.ORG API","2013-01-02T08:06:19","18 SPCS","BLITS","2009-049G","EARTH","TEME","UTC","SGP4","2013-01-02T09:26:49.327008","14.21597459","0.00034110","98.6196","57.6035","177.6691","182.4514","0","U","35871","999","17026","0.00001924200000","-0.00000001","0.0000000000000","7198.096","101.294","822.417","817.506","PAYLOAD","SMALL","CIS","2009-09-17","TTMTR","","1414898","91815569","0 BLITS","1 35871U 09049G   13002.39362647 -.00000001  00000-0  19242-4 0  9996","2 35871 098.6196 057.6035 0003411 177.6691 182.4514 14.21597459170265"
